{
  "type": "FeatureCollection",
  "features": [
    {
      "type": "Feature",
      "properties": {
        "norad_id": 34070,
        "name": "COSMOS 2251 DEB",
        "group": "cosmos-2251-debris",
        "lat": 71.24310085448245,
        "lon": 157.37138157305523,
        "alt_km": 639.8506302114492,
        "timestamp": "2025-12-21T03:56:51.226569+00:00",
        "meta_object_name": "COSMOS 2251 DEB",
        "meta_object_id": "1993-036KH",
        "meta_epoch": "2025-12-20T18:23:42.271872",
        "meta_mean_motion": 14.77271735,
        "meta_eccentricity": 0.0018174,
        "meta_inclination": 74.0009,
        "meta_ra_of_asc_node": 100.4913,
        "meta_arg_of_pericenter": 216.9904,
        "meta_mean_anomaly": 267.4014,
        "meta_ephemeris_type": 0,
        "meta_classification_type": "U",
        "meta_norad_cat_id": 34070,
        "meta_element_set_no": 999,
        "meta_rev_at_epoch": 88729,
        "meta_bstar": 0.0014117,
        "meta_mean_motion_dot": 0.00010023,
        "meta_mean_motion_ddot": 0,
        "tle_line1": "1 34070U 93036KH  25354.76646148  .00010023  00000+0  14117-2 0  9997",
        "tle_line2": "2 34070  74.0009 100.4913 0018174 216.9904 267.4014 14.77271735887298"
      },
      "geometry": {
        "type": "Point",
        "coordinates": [
          157.37138157305523,
          71.24310085448245
        ]
      }
    },
    {
      "type": "Feature",
      "properties": {
        "norad_id": 34114,
        "name": "COSMOS 2251 DEB",
        "group": "cosmos-2251-debris",
        "lat": 19.19268702600984,
        "lon": 33.578093882927824,
        "alt_km": 670.5020487312977,
        "timestamp": "2025-12-21T03:56:51.226578+00:00",
        "meta_object_name": "COSMOS 2251 DEB",
        "meta_object_id": "1993-036KK",
        "meta_epoch": "2025-12-20T20:24:52.373088",
        "meta_mean_motion": 14.56474222,
        "meta_eccentricity": 0.0047876,
        "meta_inclination": 74.0582,
        "meta_ra_of_asc_node": 28.4624,
        "meta_arg_of_pericenter": 20.252,
        "meta_mean_anomaly": 154.77,
        "meta_ephemeris_type": 0,
        "meta_classification_type": "U",
        "meta_norad_cat_id": 34114,
        "meta_element_set_no": 999,
        "meta_rev_at_epoch": 87919,
        "meta_bstar": 0.00096704,
        "meta_mean_motion_dot": 4.339e-05,
        "meta_mean_motion_ddot": 0,
        "tle_line1": "1 34114U 93036KK  25354.85060617  .00004339  00000+0  96704-3 0  9993",
        "tle_line2": "2 34114  74.0582  28.4624 0047876  20.2520 154.7700 14.56474222879195"
      },
      "geometry": {
        "type": "Point",
        "coordinates": [
          33.578093882927824,
          19.19268702600984
        ]
      }
    },
    {
      "type": "Feature",
      "properties": {
        "norad_id": 34115,
        "name": "COSMOS 2251 DEB",
        "group": "cosmos-2251-debris",
        "lat": 61.68377756280721,
        "lon": 13.16675085341688,
        "alt_km": 616.4133331066541,
        "timestamp": "2025-12-21T03:56:51.226587+00:00",
        "meta_object_name": "COSMOS 2251 DEB",
        "meta_object_id": "1993-036KL",
        "meta_epoch": "2025-12-20T17:42:06.598368",
        "meta_mean_motion": 14.79584884,
        "meta_eccentricity": 0.0028862,
        "meta_inclination": 74.0058,
        "meta_ra_of_asc_node": 226.1718,
        "meta_arg_of_pericenter": 47.278,
        "meta_mean_anomaly": 313.0818,
        "meta_ephemeris_type": 0,
        "meta_classification_type": "U",
        "meta_norad_cat_id": 34115,
        "meta_element_set_no": 999,
        "meta_rev_at_epoch": 89530,
        "meta_bstar": 0.00051805,
        "meta_mean_motion_dot": 3.875e-05,
        "meta_mean_motion_ddot": 0,
        "tle_line1": "1 34115U 93036KL  25354.73757637  .00003875  00000+0  51805-3 0  9993",
        "tle_line2": "2 34115  74.0058 226.1718 0028862  47.2780 313.0818 14.79584884895308"
      },
      "geometry": {
        "type": "Point",
        "coordinates": [
          13.16675085341688,
          61.68377756280721
        ]
      }
    },
    {
      "type": "Feature",
      "properties": {
        "norad_id": 34116,
        "name": "COSMOS 2251 DEB",
        "group": "cosmos-2251-debris",
        "lat": -7.420250423862105,
        "lon": 164.74942199507046,
        "alt_km": 722.1744608797217,
        "timestamp": "2025-12-21T03:56:51.226596+00:00",
        "meta_object_name": "COSMOS 2251 DEB",
        "meta_object_id": "1993-036KM",
        "meta_epoch": "2025-12-19T22:56:32.433216",
        "meta_mean_motion": 14.53014921,
        "meta_eccentricity": 0.00118754,
        "meta_inclination": 74.0394,
        "meta_ra_of_asc_node": 169.1645,
        "meta_arg_of_pericenter": 245.3094,
        "meta_mean_anomaly": 267.7782,
        "meta_ephemeris_type": 0,
        "meta_classification_type": "U",
        "meta_norad_cat_id": 34116,
        "meta_element_set_no": 999,
        "meta_rev_at_epoch": 88591,
        "meta_bstar": 0.00053046102,
        "meta_mean_motion_dot": 2.164e-05,
        "meta_mean_motion_ddot": 0,
        "tle_line1": "1 34116U 93036KM  25353.95593094  .00002164  00000+0  53046-3 0  9991",
        "tle_line2": "2 34116  74.0394 169.1645 0011875 245.3094 267.7782 14.53014921885915"
      },
      "geometry": {
        "type": "Point",
        "coordinates": [
          164.74942199507046,
          -7.420250423862105
        ]
      }
    },
    {
      "type": "Feature",
      "properties": {
        "norad_id": 34117,
        "name": "COSMOS 2251 DEB",
        "group": "cosmos-2251-debris",
        "lat": 31.352033536869204,
        "lon": 138.2218966704349,
        "alt_km": 766.0935597539719,
        "timestamp": "2025-12-21T03:56:51.226606+00:00",
        "meta_object_name": "COSMOS 2251 DEB",
        "meta_object_id": "1993-036KN",
        "meta_epoch": "2025-12-20T08:55:52.413888",
        "meta_mean_motion": 14.40039498,
        "meta_eccentricity": 0.00548478,
        "meta_inclination": 74.0395,
        "meta_ra_of_asc_node": 329.7266,
        "meta_arg_of_pericenter": 43.9351,
        "meta_mean_anomaly": 316.6145,
        "meta_ephemeris_type": 0,
        "meta_classification_type": "U",
        "meta_norad_cat_id": 34117,
        "meta_element_set_no": 999,
        "meta_rev_at_epoch": 88233,
        "meta_bstar": 0.00048420631,
        "meta_mean_motion_dot": 1.527e-05,
        "meta_mean_motion_ddot": 0,
        "tle_line1": "1 34117U 93036KN  25354.37213442  .00001527  00000+0  48421-3 0  9998",
        "tle_line2": "2 34117  74.0395 329.7266 0054847  43.9351 316.6145 14.40039498882336"
      },
      "geometry": {
        "type": "Point",
        "coordinates": [
          138.2218966704349,
          31.352033536869204
        ]
      }
    },
    {
      "type": "Feature",
      "properties": {
        "norad_id": 34118,
        "name": "COSMOS 2251 DEB",
        "group": "cosmos-2251-debris",
        "lat": 52.508308979720276,
        "lon": -105.70806494395367,
        "alt_km": 537.8876166131495,
        "timestamp": "2025-12-21T03:56:51.226615+00:00",
        "meta_object_name": "COSMOS 2251 DEB",
        "meta_object_id": "1993-036KP",
        "meta_epoch": "2025-12-20T08:56:41.369856",
        "meta_mean_motion": 14.94184152,
        "meta_eccentricity": 0.00601121,
        "meta_inclination": 73.9518,
        "meta_ra_of_asc_node": 233.8545,
        "meta_arg_of_pericenter": 62.1747,
        "meta_mean_anomaly": 56.3304,
        "meta_ephemeris_type": 0,
        "meta_classification_type": "U",
        "meta_norad_cat_id": 34118,
        "meta_element_set_no": 999,
        "meta_rev_at_epoch": 89290,
        "meta_bstar": 0.00094564831,
        "meta_mean_motion_dot": 0.00010474,
        "meta_mean_motion_ddot": 0,
        "tle_line1": "1 34118U 93036KP  25354.37270104  .00010474  00000+0  94565-3 0  9998",
        "tle_line2": "2 34118  73.9518 233.8545 0060112  62.1747  56.3304 14.94184152892907"
      },
      "geometry": {
        "type": "Point",
        "coordinates": [
          -105.70806494395367,
          52.508308979720276
        ]
      }
    },
    {
      "type": "Feature",
      "properties": {
        "norad_id": 34120,
        "name": "COSMOS 2251 DEB",
        "group": "cosmos-2251-debris",
        "lat": 73.22712221743974,
        "lon": -50.65600870509419,
        "alt_km": 838.3151097018626,
        "timestamp": "2025-12-21T03:56:51.226624+00:00",
        "meta_object_name": "COSMOS 2251 DEB",
        "meta_object_id": "1993-036KR",
        "meta_epoch": "2025-12-20T15:45:16.401312",
        "meta_mean_motion": 13.98692111,
        "meta_eccentricity": 0.0182297,
        "meta_inclination": 73.9903,
        "meta_ra_of_asc_node": 202.5078,
        "meta_arg_of_pericenter": 28.4342,
        "meta_mean_anomaly": 27.5242,
        "meta_ephemeris_type": 0,
        "meta_classification_type": "U",
        "meta_norad_cat_id": 34120,
        "meta_element_set_no": 999,
        "meta_rev_at_epoch": 86091,
        "meta_bstar": 0.00023534,
        "meta_mean_motion_dot": 3.66e-06,
        "meta_mean_motion_ddot": 0,
        "tle_line1": "1 34120U 93036KR  25354.65643983  .00000366  00000+0  23534-3 0  9998",
        "tle_line2": "2 34120  73.9903 202.5078 0182297  28.4342  27.5242 13.98692111860916"
      },
      "geometry": {
        "type": "Point",
        "coordinates": [
          -50.65600870509419,
          73.22712221743974
        ]
      }
    }
  ]
}